{
  "norad_id": 65565,
  "name": "PRAETORIAN SDA_602",
  "history": [
    {
      "epoch": "2026-03-28T17:24:27.017280Z",
      "apogee_km": 953.7191185302418,
      "perigee_km": 943.398734648048,
      "latitude_deg": -1.1597793010316131e-05,
      "longitude_deg": -1.9546104430103173,
      "height_km": 948.6670008813238,
      "semi_major_axis_km": 7326.695926589145,
      "eccentricity": 0.0007043,
      "inclination_deg": 81.2991,
      "raan_deg": 85.2996,
      "arg_perigee_deg": 57.8533,
      "mean_anomaly_deg": 302.3306,
      "mean_motion_rev_day": 13.84332804
    },
    {
      "epoch": "2026-03-29T05:32:59.739072Z",
      "apogee_km": 953.6605968032336,
      "perigee_km": 943.4545112894466,
      "latitude_deg": -6.289751092187156e-05,
      "longitude_deg": 174.94166937578143,
      "height_km": 948.5885706525147,
      "semi_major_axis_km": 7326.694554046339,
      "eccentricity": 0.0006965,
      "inclination_deg": 81.2989,
      "raan_deg": 84.8309,
      "arg_perigee_deg": 56.4118,
      "mean_anomaly_deg": 303.7702,
      "mean_motion_rev_day": 13.84333193
    },
    {
      "epoch": "2026-03-30T02:21:55.782720Z",
      "apogee_km": 953.6663416783531,
      "perigee_km": 943.4456049805585,
      "latitude_deg": -4.30871305505478e-05,
      "longitude_deg": -138.95020729186422,
      "height_km": 948.4517728012856,
      "semi_major_axis_km": 7326.6929733294555,
      "eccentricity": 0.0006975,
      "inclination_deg": 81.2991,
      "raan_deg": 84.0274,
      "arg_perigee_deg": 54.6244,
      "mean_anomaly_deg": 305.5563,
      "mean_motion_rev_day": 13.84333641
    },
    {
      "epoch": "2026-03-30T05:50:05.148096Z",
      "apogee_km": 953.6786699387312,
      "perigee_km": 943.4336083883763,
      "latitude_deg": -9.85097823930614e-06,
      "longitude_deg": 168.7341977544822,
      "height_km": 948.4015738218923,
      "semi_major_axis_km": 7326.6931391635535,
      "eccentricity": 0.00069916,
      "inclination_deg": 81.2993,
      "raan_deg": 83.8933,
      "arg_perigee_deg": 54.0271,
      "mean_anomaly_deg": 306.1533,
      "mean_motion_rev_day": 13.84333594
    },
    {
      "epoch": "2026-03-30T11:02:19.155552Z",
      "apogee_km": 953.6824877072522,
      "perigee_km": 943.4346386230527,
      "latitude_deg": -1.4072746768918887e-05,
      "longitude_deg": 90.26081675481682,
      "height_km": 948.3932659226869,
      "semi_major_axis_km": 7326.695563165152,
      "eccentricity": 0.00069935,
      "inclination_deg": 81.2997,
      "raan_deg": 83.692,
      "arg_perigee_deg": 53.8896,
      "mean_anomaly_deg": 306.2907,
      "mean_motion_rev_day": 13.84332907
    },
    {
      "epoch": "2026-03-31T16:31:38.529696Z",
      "apogee_km": 953.6772292527385,
      "perigee_km": 943.440369881584,
      "latitude_deg": 3.738266199401495e-05,
      "longitude_deg": 5.58104208486634,
      "height_km": 948.191307418585,
      "semi_major_axis_km": 7326.695799567161,
      "eccentricity": 0.0006986,
      "inclination_deg": 81.3001,
      "raan_deg": 82.554,
      "arg_perigee_deg": 50.9815,
      "mean_anomaly_deg": 309.1963,
      "mean_motion_rev_day": 13.8433284
    },
    {
      "epoch": "2026-04-01T01:12:01.951776Z",
      "apogee_km": 953.6307860235393,
      "perigee_km": 943.4817040066791,
      "latitude_deg": 4.685040486297173e-05,
      "longitude_deg": -125.20774252471985,
      "height_km": 948.126166828958,
      "semi_major_axis_km": 7326.693245015109,
      "eccentricity": 0.00069261,
      "inclination_deg": 81.2995,
      "raan_deg": 82.219,
      "arg_perigee_deg": 49.6534,
      "mean_anomaly_deg": 310.5227,
      "mean_motion_rev_day": 13.84333564
    },
    {
      "epoch": "2026-04-02T17:05:49.256160Z",
      "apogee_km": 953.5720992106471,
      "perigee_km": 943.5403908195713,
      "latitude_deg": 1.8011538910373634e-06,
      "longitude_deg": -6.83383925692528,
      "height_km": 947.9284120377047,
      "semi_major_axis_km": 7326.693245015109,
      "eccentricity": 0.0006846,
      "inclination_deg": 81.2995,
      "raan_deg": 80.6785,
      "arg_perigee_deg": 46.0077,
      "mean_anomaly_deg": 314.1643,
      "mean_motion_rev_day": 13.84333564
    },
    {
      "epoch": "2026-04-02T22:18:18.730944Z",
      "apogee_km": 952.7951194866837,
      "perigee_km": 945.5772665021923,
      "latitude_deg": -2.2275322508829016e-06,
      "longitude_deg": -85.37334397650504,
      "height_km": 949.5864053555314,
      "semi_major_axis_km": 7327.323192994438,
      "eccentricity": 0.00049253,
      "inclination_deg": 81.2997,
      "raan_deg": 80.4757,
      "arg_perigee_deg": 47.0603,
      "mean_anomaly_deg": 313.0966,
      "mean_motion_rev_day": 13.84155046
    },
    {
      "epoch": "2026-04-05T23:09:19.291104Z",
      "apogee_km": 953.5298693671484,
      "perigee_km": 943.5755356697191,
      "latitude_deg": -2.798645554234328e-05,
      "longitude_deg": -103.92843418164236,
      "height_km": 947.4808686083624,
      "semi_major_axis_km": 7326.6897025184335,
      "eccentricity": 0.00067932,
      "inclination_deg": 81.3001,
      "raan_deg": 77.6648,
      "arg_perigee_deg": 37.8629,
      "mean_anomaly_deg": 322.3004,
      "mean_motion_rev_day": 13.84334568
    },
    {
      "epoch": "2026-04-07T09:50:52.597536Z",
      "apogee_km": 953.3798743944299,
      "perigee_km": 943.7249096474134,
      "latitude_deg": -5.202049579599066e-05,
      "longitude_deg": 92.9181077729814,
      "height_km": 947.4340776864102,
      "semi_major_axis_km": 7326.689392020921,
      "eccentricity": 0.00065889,
      "inclination_deg": 81.3048,
      "raan_deg": 76.3249,
      "arg_perigee_deg": 34.5326,
      "mean_anomaly_deg": 325.6257,
      "mean_motion_rev_day": 13.84334656
    },
    {
      "epoch": "2026-04-08T15:20:11.975136Z",
      "apogee_km": 953.4581613171995,
      "perigee_km": 943.6494807136569,
      "latitude_deg": 6.503105294797422e-06,
      "longitude_deg": 8.239114441804876,
      "height_km": 947.2337922934066,
      "semi_major_axis_km": 7326.690821015428,
      "eccentricity": 0.00066938,
      "inclination_deg": 81.3008,
      "raan_deg": 75.1877,
      "arg_perigee_deg": 31.5611,
      "mean_anomaly_deg": 328.5946,
      "mean_motion_rev_day": 13.84334251
    },
    {
      "epoch": "2026-04-09T15:37:17.302080Z",
      "apogee_km": 953.4738103404334,
      "perigee_km": 943.6369931218678,
      "latitude_deg": 2.5446263306146822e-06,
      "longitude_deg": 2.0319733987830513,
      "height_km": 947.1257948846941,
      "semi_major_axis_km": 7326.69240173115,
      "eccentricity": 0.0006713,
      "inclination_deg": 81.3011,
      "raan_deg": 74.2501,
      "arg_perigee_deg": 29.307,
      "mean_anomaly_deg": 330.8462,
      "mean_motion_rev_day": 13.84333803
    },
    {
      "epoch": "2026-04-10T10:42:08.536032Z",
      "apogee_km": 953.4017177882242,
      "perigee_km": 943.6982535444076,
      "latitude_deg": -2.488850712486248e-05,
      "longitude_deg": 74.29836769483812,
      "height_km": 947.078220706229,
      "semi_major_axis_km": 7326.686985666315,
      "eccentricity": 0.0006622,
      "inclination_deg": 81.3008,
      "raan_deg": 73.5136,
      "arg_perigee_deg": 26.7726,
      "mean_anomaly_deg": 333.3771,
      "mean_motion_rev_day": 13.84335338
    },
    {
      "epoch": "2026-04-11T21:23:41.781120Z",
      "apogee_km": 953.3432013348856,
      "perigee_km": 943.7584283355181,
      "latitude_deg": -7.317280290842725e-05,
      "longitude_deg": -88.85423670768633,
      "height_km": 947.012116042455,
      "semi_major_axis_km": 7326.687814835202,
      "eccentricity": 0.0006541,
      "inclination_deg": 81.3007,
      "raan_deg": 72.1743,
      "arg_perigee_deg": 23.3682,
      "mean_anomaly_deg": 336.777,
      "mean_motion_rev_day": 13.84335103
    },
    {
      "epoch": "2026-04-13T04:37:05.709216Z",
      "apogee_km": 953.3442280717054,
      "perigee_km": 943.7540355263491,
      "latitude_deg": 2.5279849049330903e-05,
      "longitude_deg": 160.30808139669819,
      "height_km": 946.9204321195933,
      "semi_major_axis_km": 7326.686131799027,
      "eccentricity": 0.00065447,
      "inclination_deg": 81.3014,
      "raan_deg": 70.9686,
      "arg_perigee_deg": 20.5548,
      "mean_anomaly_deg": 339.5871,
      "mean_motion_rev_day": 13.8433558
    },
    {
      "epoch": "2026-04-14T20:30:52.917696Z",
      "apogee_km": 953.2472023669034,
      "perigee_km": 943.8529242143522,
      "latitude_deg": 9.603760566548244e-06,
      "longitude_deg": -81.31671007266601,
      "height_km": 946.9023671171933,
      "semi_major_axis_km": 7326.6870632906275,
      "eccentricity": 0.0006411,
      "inclination_deg": 81.3014,
      "raan_deg": 69.429,
      "arg_perigee_deg": 16.24,
      "mean_anomaly_deg": 343.8961,
      "mean_motion_rev_day": 13.84335316
    },
    {
      "epoch": "2026-04-15T20:47:58.172064Z",
      "apogee_km": 953.1640083147149,
      "perigee_km": 943.935313796449,
      "latitude_deg": -6.0823261284181455e-05,
      "longitude_deg": -87.52375304127924,
      "height_km": 946.9264189345183,
      "semi_major_axis_km": 7326.686661055582,
      "eccentricity": 0.0006298,
      "inclination_deg": 81.302,
      "raan_deg": 68.4912,
      "arg_perigee_deg": 13.5537,
      "mean_anomaly_deg": 346.5787,
      "mean_motion_rev_day": 13.8433543
    },
    {
      "epoch": "2026-04-16T14:08:44.764800Z",
      "apogee_km": 953.1873018957695,
      "perigee_km": 943.91171677495,
      "latitude_deg": -8.675345248074466e-06,
      "longitude_deg": 10.900533644435878,
      "height_km": 946.8703562879023,
      "semi_major_axis_km": 7326.686509335359,
      "eccentricity": 0.000633,
      "inclination_deg": 81.3021,
      "raan_deg": 67.822,
      "arg_perigee_deg": 11.6613,
      "mean_anomaly_deg": 348.4689,
      "mean_motion_rev_day": 13.84335473
    }
  ]
}